satname,norad_id,inclination_deg,eccentricity,mean_motion_rev_per_day,perigee_km,apogee_km,l1,l2
STARLINK-1522,46027,53.0552,0.0001446,15.06403073,546.2007356122876,548.2035436914748,1 46027U 20055A   26043.81563714  .00002444  00000+0  18287-3 0  9993,2 46027  53.0552 238.2802 0001446  99.7801 260.3351 15.06403073305136
STARLINK-1523,46028,53.0551,0.0001342,15.06396478,546.2929691569589,548.1517356071381,1 46028U 20055B   26043.76404087 -.00000096  00000+0  12445-4 0  9998,2 46028  53.0551 238.5138 0001342  92.9627 267.1516 15.06396478305146
STARLINK-1526,46029,53.0563,0.000152,15.06400692,546.1567844003221,548.2620897171882,1 46029U 20055C   26043.82301745 -.00001664  00000+0 -92830-4 0  9992,2 46029  53.0563 238.2419 0001520  91.3389 268.7774 15.06400692305142
STARLINK-1555,46032,53.0548,0.0001303,15.06394566,546.3258373285234,548.1305875028793,1 46032U 20055F   26043.80827304 -.00000314  00000+0 -21695-5 0  9991,2 46032  53.0548 238.3143 0001303  91.8852 268.2286 15.06394566305148
STARLINK-1556,46033,53.0553,0.0001397,15.06395623,546.2574997777492,548.1924459129623,1 46033U 20055G   26043.78984898  .00000654  00000+0  62819-4 0  9998,2 46033  53.0553 238.3976 0001397  87.1204 272.9945 15.06395623305117
STARLINK-1557,46034,53.0563,0.0001605,15.06394818,546.1159190748294,548.3389610600916,1 46034U 20055H   26043.79353255  .00000524  00000+0  54049-4 0  9999,2 46034  53.0563 238.3829 0001605  76.8858 283.2310 15.06394818305114
STARLINK-1558,46035,53.0553,0.0001734,15.0639283,546.0326737923406,548.4343922932003,1 46035U 20055J   26043.80090325 -.00000090  00000+0  12867-4 0  9999,2 46035  53.0553 238.3494 0001734  89.7939 270.3249 15.06392830305141
STARLINK-1560,46036,53.0546,0.0001337,15.06404256,546.2725965837508,548.124431300178,1 46036U 20055K   26043.78616921  .00002061  00000+0  15719-3 0  9990,2 46036  53.0546 238.4135 0001337  88.3285 271.7857 15.06404256305141
STARLINK-1567,46038,53.0558,0.000157,15.06394395,546.1414540886426,548.316018929906,1 46038U 20055M   26043.79721789  .00000115  00000+0  26629-4 0  9993,2 46038  53.0558 238.3658 0001570  79.4807 280.6359 15.06394395305132
STARLINK-1569,46039,53.0555,5.78e-05,15.06599946,546.1985702893217,546.9990697501162,1 46039U 20055N   26043.80455191 -.00046229  00000+0 -30882-2 0  9999,2 46039  53.0555 238.3313 0000578 141.6761 218.4269 15.06599946305134
STARLINK-1582,46043,53.0559,0.0001284,15.0640008,546.3220980264523,548.100527473166,1 46043U 20055S   26043.81195675 -.00000141  00000+0  94474-5 0  9995,2 46043  53.0559 238.2979 0001284  91.3335 268.7801 15.06400080305133
STARLINK-1591,46045,53.0556,0.0001503,15.06390714,546.1991341711928,548.2809025029055,1 46045U 20055U   26043.77141902  .00000469  00000+0  50365-4 0  9998,2 46045  53.0556 238.4808 0001503  87.4415 272.6746 15.06390714305116
STARLINK-1524,46047,53.0606,0.0001758,15.07226614,543.4622319133377,545.8962941114123,1 46047U 20055W   26043.78987816  .00104044  00000+0  67491-2 0  9993,2 46047  53.0606 228.3923 0001758 132.2125 227.9013 15.07226614305274
STARLINK-1527,46048,53.0558,0.0001495,15.06402939,546.1672120784397,548.2378886039924,1 46048U 20055X   26043.78707308  .00000768  00000+0  70457-4 0  9996,2 46048  53.0558 228.4091 0001495  98.0084 262.1075 15.06402939305251
STARLINK-1540,46051,53.0573,0.0001606,15.0753736,542.6162536046822,544.8395566122035,1 46051U 20055AA  26043.81892747  .00136734  00000+0  87489-2 0  9990,2 46051  53.0573 228.2466 0001606 143.9141 216.1957 15.07537360305294
STARLINK-1541,46052,53.0735,0.0001546,15.11356761,530.9930179045441,533.1296512295912,1 46052U 20055AB  26043.91670139  .00081387  00000+0  47337-2 0  9992,2 46052  53.0735 227.7616 0001546 128.0662 152.7545 15.11356761  5778
STARLINK-1543,46053,53.057,0.0001483,15.07258975,543.5535346654642,545.6068125791599,1 46053U 20055AC  26043.74186148  .00104904  00000+0  67979-2 0  9991,2 46053  53.0570 228.6021 0001483 111.8827 248.2320 15.07258975305272
STARLINK-1548,46054,53.0642,0.0002342,15.09360612,536.5327487568529,539.772338779153,1 46054U 20055AD  26043.91670139  .00078809  00000+0  48450-2 0  9996,2 46054  53.0642 227.8138 0002342  90.4503 101.5142 15.09360612  5848
STARLINK-1554,46055,53.0646,0.0001705,15.09422919,536.7830172971462,539.1414071285117,1 46055U 20055AE  26043.91670139  .00077785  00000+0  47748-2 0  9998,2 46055  53.0646 227.8097 0001705 127.0065 147.2298 15.09422919  5779
STARLINK-1564,46058,53.0625,0.0002105,15.07595876,542.0917783824098,545.005808101364,1 46058U 20055AH  26043.74535539  .00105530  00000+0  67756-2 0  9997,2 46058  53.0625 229.0535 0002105 120.3034 239.8164 15.07595876305265
STARLINK-1570,46059,53.0555,0.000158,15.06393717,546.1366063805999,548.3250226099817,1 46059U 20055AJ  26043.77602248 -.00000091  00000+0  12809-4 0  9991,2 46059  53.0555 228.4611 0001580  73.9743 286.1420 15.06393717305238
STARLINK-1572,46060,53.0575,0.0001588,15.07043031,544.1420288265581,546.3408938258754,1 46060U 20055AK  26043.77166600  .00081695  00000+0  53466-2 0  9990,2 46060  53.0575 228.4664 0001588  61.1943 298.9206 15.07043031305245
STARLINK-1573,46061,53.0562,0.000164,15.06400858,546.073171560859,548.3446850253395,1 46061U 20055AL  26043.76865456  .00001047  00000+0  89206-4 0  9991,2 46061  53.0562 228.5327 0001640  71.6753 288.4414 15.06400858305274
STARLINK-1577,46063,53.0558,0.0001523,15.06397152,546.1655547470837,548.2750185766008,1 46063U 20055AN  26043.79443943 -.00001226  00000+0 -63451-4 0  9994,2 46063  53.0558 228.3708 0001523 133.8533 226.2582 15.06397152305277
STARLINK-1583,46064,53.0566,0.0001433,15.06397603,546.2265009066859,548.2113079088895,1 46064U 20055AP  26043.69492859  .00000526  00000+0  54234-4 0  9993,2 46064  53.0566 228.8235 0001433  98.0561 262.0591 15.06397603305268
STARLINK-1525,46066,53.0564,0.0001278,15.06396287,546.3378767718341,548.1079987719286,1 46066U 20055AR  26043.82577924  .00002048  00000+0  15636-3 0  9990,2 46066  53.0564 208.2355 0001278 100.1782 259.9351 15.06396287305558
STARLINK-1536,46070,53.0566,0.0001587,15.06398836,546.1160720506214,548.3141788152343,1 46070U 20055AV  26043.60461427 -.00000816  00000+0 -35899-4 0  9998,2 46070  53.0566 209.2242 0001587 122.7723 237.3419 15.06398836305534
STARLINK-1542,46073,53.0562,0.0001206,15.06394168,546.3942330442533,548.0646314277092,1 46073U 20055AY  26043.72994339 -.00000983  00000+0 -47143-4 0  9997,2 46073  53.0562 208.6662 0001206  83.2389 276.8737 15.06394168305545
